0 BREEZE-M DEB
1 38621U 08011BU  13280.09864054 -.00000182  00000-0 -39493-2 0  1052
2 38621 048.6595 183.6751 6501213 252.6282 030.7142 03.02366275 22460
0 BREEZE-M DEB
1 38621U 08011BU  13293.65589848 -.00001184  00000-0 -18483-1 0  1062
2 38621 048.7128 178.8550 6502400 256.8288 027.0297 03.02326296 22882
